OBJECT_NAME,OBJECT_ID,EPOCH,MEAN_MOTION,ECCENTRICITY,INCLINATION,RA_OF_ASC_NODE,ARG_OF_PERICENTER,MEAN_ANOMALY,EPHEMERIS_TYPE,CLASSIFICATION_TYPE,NORAD_CAT_ID,ELEMENT_SET_NO,REV_AT_EPOCH,BSTAR,MEAN_MOTION_DOT,MEAN_MOTION_DDOT
STARLINK-32224,2024-155T,2026-07-06T13:48:01.556064,15.34408057,.000173,53.1604,296.6899,72.0345,288.0846,0,U,60941,999,10456,.13157E-2,.44353E-3,0
STARLINK-32184,2024-155U,2026-07-06T17:43:57.624096,15.34384184,.0001361,53.1593,295.5826,90.9638,269.1521,0,U,60942,999,10453,.13614E-3,.4224E-4,0
STARLINK-32288,2024-155V,2026-07-06T14:39:24.454944,15.34382413,.000189,53.1600,296.2045,60.1543,299.9647,0,U,60943,999,10451,-.66283E-4,-.2614E-4,0
STARLINK-32276,2024-155W,2026-07-06T14:09:14.298048,15.34375409,.0001206,53.1593,296.7754,110.3920,249.7213,0,U,60944,999,10460,.46323E-3,.15295E-3,0
STARLINK-11289 [DTC],2024-158B,2026-07-06T20:29:52.735776,15.69748500,.0000803,53.1590,53.6169,101.8043,258.3065,0,U,60991,999,10631,.82055E-5,.407E-5,0
STARLINK-11282 [DTC],2024-158C,2026-07-06T17:47:43.396800,15.69734304,.0001218,53.1590,54.3412,103.8717,256.2436,0,U,60992,999,10629,.28779E-5,-.24E-5,0
STARLINK-11283 [DTC],2024-158D,2026-07-05T22:45:19.265760,15.69696972,.00010847,53.1583,58.6500,126.6282,233.4835,0,U,60993,999,10616,.782385E-5,.359E-5,0
STARLINK-11267 [DTC],2024-158E,2026-07-06T01:41:37.257504,15.69701259,.00009219,53.1584,57.9906,75.3146,284.7974,0,U,60994,999,10618,.10851568E-4,.726E-5,0
STARLINK-11269 [DTC],2024-158F,2026-07-05T19:27:50.785344,15.69676456,.00015524,53.1600,59.2102,112.6775,247.4407,0,U,60995,999,10613,-.8612599E-5,-.1631E-4,0
STARLINK-11281 [DTC],2024-158G,2026-07-05T22:24:09.371520,15.69671960,.00008712,53.1599,58.5516,78.8534,281.2581,0,U,60996,999,10615,-.20418462E-4,-.3057E-4,0
STARLINK-11260 [DTC],2024-158H,2026-07-05T23:51:26.109216,15.69694753,.00011403,53.1590,35.9028,129.1609,230.9510,0,U,60997,999,10653,.2080175E-5,-.337E-5,0
STARLINK-11287 [DTC],2024-158J,2026-07-06T01:20:27.237984,15.69678077,.00012147,53.1590,57.8887,74.9279,285.1874,0,U,60998,999,10617,-.21664305E-4,-.3209E-4,0
STARLINK-11270 [DTC],2024-158K,2026-07-06T18:01:52.022784,15.69875508,.0001087,53.1572,54.4036,97.7739,262.3403,0,U,60999,999,10628,.13857E-2,.171992E-2,0
STARLINK-11290 [DTC],2024-158L,2026-07-06T17:54:46.219392,15.69747238,.0000714,53.1591,54.3712,75.8740,284.2358,0,U,61000,999,10635,.11544E-4,.813E-5,0
STARLINK-11274 [DTC],2024-158M,2026-07-06T17:40:41.661120,15.69701804,.0000916,53.1583,54.3038,83.4710,276.6412,0,U,61001,999,10628,-.33504E-4,-.4643E-4,0
STARLINK-11288 [DTC],2024-158N,2026-07-06T20:36:56.925216,15.69731083,.0000687,53.1594,53.6465,94.6125,265.4972,0,U,61002,999,10630,.2803E-4,.2812E-4,0
STARLINK-32279,2024-158P,2026-07-06T10:06:23.673312,15.34374596,.0001321,53.1586,233.0402,87.2429,272.8724,0,U,61003,999,10384,-.11535E-3,-.4268E-4,0
STARLINK-32336,2024-158Q,2026-07-06T10:15:30.225888,15.34378808,.0001093,53.1611,233.0783,87.6304,272.4824,0,U,61004,999,10384,-.14281E-3,-.5194E-4,0
STARLINK-32284,2024-158R,2026-07-06T08:29:35.648448,15.34373025,.00014,53.1604,233.3351,81.0549,279.0612,0,U,61005,999,10376,-.48820889E-4,-.2024E-4,0
STARLINK-32282,2024-158S,2026-07-06T10:33:40.139424,15.34362405,.0001216,53.1584,233.1543,85.5073,274.6068,0,U,61006,999,10384,-.20252E-3,-.7204E-4,0
STARLINK-32360,2024-158T,2026-07-06T08:52:08.038272,15.34349670,.00007733,53.1575,217.4268,70.6783,289.4303,0,U,61007,999,10398,-.29603624E-3,-.10348E-3,0
STARLINK-32340,2024-158U,2026-07-06T10:12:27.554688,15.34384511,.0001695,53.1579,232.9942,107.1935,252.9253,0,U,61008,999,10377,.6375E-4,.1777E-4,0
STARLINK-32347,2024-158W,2026-07-06T08:50:46.307328,15.34362064,.00019114,53.1596,233.4206,106.5260,253.5953,0,U,61010,999,10376,-.28647531E-3,-.10032E-3,0
STARLINK-11286 [DTC],2024-164A,2026-07-06T00:27:31.017600,15.69698148,.0001103,53.1588,87.9691,78.1400,281.9742,0,U,61050,999,10400,.18483571E-4,.165E-4,0
STARLINK-11252 [DTC],2024-164B,2026-07-06T00:20:27.019104,15.69696861,.00011693,53.1580,87.9353,95.9905,264.1246,0,U,61051,999,10400,.3625329E-5,-.15E-5,0
STARLINK-11230 [DTC],2024-164D,2026-07-06T03:09:41.774400,15.69697780,.00011416,53.1574,87.2377,113.0833,247.0305,0,U,61053,999,10402,.23293595E-4,.2233E-4,0
STARLINK-11294 [DTC],2024-164E,2026-07-06T03:02:37.158144,15.69707618,.00012742,53.1582,87.2061,91.2878,268.8286,0,U,61054,999,10402,.23505453E-4,.2259E-4,0
STARLINK-11268 [DTC],2024-164F,2026-07-06T02:55:33.434400,15.69703230,.00012604,53.1589,87.1724,89.7206,270.3957,0,U,61055,999,10402,.23250103E-4,.2228E-4,0
STARLINK-11156 [DTC],2024-164G,2026-07-05T23:37:41.250144,15.68817338,.00014436,53.1598,87.7335,119.8738,240.2423,0,U,61056,999,10400,-.16668764E-4,-.2527E-4,0
STARLINK-11231 [DTC],2024-164H,2026-07-06T02:41:34.303776,15.69711826,.00009365,53.1578,87.8440,101.2126,258.8998,0,U,61057,999,10401,.25856648E-4,.2545E-4,0
STARLINK-11299 [DTC],2024-164J,2026-07-06T02:34:29.997696,15.69718144,.00011486,53.1593,87.8099,126.6934,233.4189,0,U,61058,999,10401,.25870816E-4,.2547E-4,0
STARLINK-11154 [DTC],2024-164K,2026-07-06T02:27:26.750016,15.69712102,.00008712,53.1587,87.7784,87.2137,272.8981,0,U,61059,999,10401,.9960594E-5,.619E-5,0
STARLINK-11297 [DTC],2024-164L,2026-07-06T20:40:33.714048,15.69726314,.0000685,53.1576,83.9774,69.7905,290.3186,0,U,61060,999,10413,.66169E-4,.7441E-4,0
STARLINK-11233 [DTC],2024-164M,2026-07-06T20:33:29.100384,15.69718302,.0001353,53.1571,83.9452,47.5404,312.5728,0,U,61061,999,10413,.27224E-4,.2711E-4,0
STARLINK-11236 [DTC],2024-164N,2026-07-06T03:37:56.082720,15.69713589,.00010947,53.1595,87.3639,76.6691,283.4449,0,U,61062,999,10402,.15341596E-4,.1271E-4,0
STARLINK-32350,2024-164P,2026-07-06T11:33:13.893984,15.31696780,.0001265,53.1569,258.7431,80.9012,279.2132,0,U,61063,999,10167,.28855E-3,.8598E-4,0
STARLINK-32378,2024-164Q,2026-07-06T11:39:56.144736,15.31715630,.0001393,53.1608,258.7738,90.5666,269.5495,0,U,61064,999,10167,.12599E-4,.26E-6,0
STARLINK-32321,2024-164R,2026-07-06T11:35:01.289184,15.30176265,.000132,53.1575,259.4617,109.3576,250.7568,0,U,61065,999,10166,.33239E-3,.9491E-4,0
STARLINK-32381,2024-164S,2026-07-06T11:50:11.728320,15.30198153,.0001284,53.1600,259.5200,98.6813,261.4334,0,U,61066,999,10166,-.29192E-5,-.446E-5,0
STARLINK-32385,2024-164U,2026-07-06T11:53:23.746272,15.31690385,.0001462,53.1595,258.8312,95.8154,264.3014,0,U,61068,999,10167,-.77812E-4,-.2778E-4,0
STARLINK-32380,2024-164V,2026-07-06T11:46:40.044864,15.31705798,.0001231,53.1590,258.8027,108.7999,251.3136,0,U,61069,999,10167,.641E-7,-.363E-5,0
STARLINK-32375,2024-164W,2026-07-06T11:39:34.226784,15.30170544,.000088,53.1584,259.4724,76.0053,284.1045,0,U,61070,999,10166,.91825E-4,.2359E-4,0
STARLINK-11209 [DTC],2024-171A,2026-07-06T14:35:35.924352,15.69722075,.0001249,53.1588,310.2340,76.8584,283.2574,0,U,61200,999,10398,.15901E-4,.1339E-4,0
STARLINK-11257 [DTC],2024-171B,2026-07-06T12:56:50.925120,15.69722353,.0001241,53.1594,310.5104,70.5877,289.5275,0,U,61201,999,10306,.49428E-5,.1E-6,0
STARLINK-11309 [DTC],2024-171C,2026-07-06T14:21:27.140256,15.69734507,.0000977,53.1588,310.1594,106.9679,253.1446,0,U,61202,999,10307,.20036E-4,.1842E-4,0
STARLINK-11292 [DTC],2024-171D,2026-07-06T15:46:05.143008,15.69718210,.0000787,53.1589,309.8113,94.5583,265.5525,0,U,61203,999,10308,.20745E-5,-.337E-5,0
STARLINK-11302 [DTC],2024-171E,2026-07-06T20:14:02.906016,15.69739837,.0000849,53.1582,308.8375,128.5348,231.5746,0,U,61204,999,10311,.25356E-4,.2488E-4,0
STARLINK-11277 [DTC],2024-171F,2026-07-06T15:24:54.612000,15.69706748,.0001591,53.1587,309.7165,63.0805,297.0375,0,U,61205,999,10308,.11628E-5,-.449E-5,0
STARLINK-11279 [DTC],2024-171G,2026-07-06T15:17:49.036704,15.69729698,.000107,53.1593,309.6850,108.5214,251.5920,0,U,61206,999,10308,.23225E-4,.2228E-4,0
STARLINK-11091 [DTC],2024-171H,2026-07-06T18:35:18.929760,15.69739241,.0001497,53.1583,309.1160,124.1966,235.9194,0,U,61207,999,10310,.49847E-4,.5461E-4,0
STARLINK-11291 [DTC],2024-171J,2026-07-06T15:10:45.391584,15.69726504,.0001105,53.1592,309.6499,87.0816,273.0328,0,U,61208,999,10308,.30925E-4,.3162E-4,0
STARLINK-11304 [DTC],2024-171K,2026-07-06T15:03:41.304096,15.69741053,.0000878,53.1606,309.6170,112.7913,247.3198,0,U,61209,999,10399,.14054E-4,.1116E-4,0
STARLINK-11307 [DTC],2024-171L,2026-07-06T16:28:26.652576,15.69743810,.0000529,53.1576,310.0063,73.5479,286.5597,0,U,61210,999,10308,.27266E-4,.2721E-4,0
STARLINK-11298 [DTC],2024-171M,2026-07-06T14:49:42.372192,15.69733012,.0000978,53.1588,310.2852,80.0254,280.0874,0,U,61211,999,10307,.31806E-4,.327E-4,0
STARLINK-11310 [DTC],2024-171N,2026-07-06T14:42:38.822976,15.69715739,.0001082,53.1588,310.2520,158.7418,201.3645,0,U,61212,999,10307,.4792E-4,.5222E-4,0
STARLINK-32386,2024-171P,2026-07-06T05:27:43.174656,15.34350344,.00015691,53.1587,129.9708,82.9182,277.1999,0,U,61213,999,10054,-.28347452E-3,-.9926E-4,0
STARLINK-32392,2024-171Q,2026-07-06T05:42:52.882848,15.34358786,.00013991,53.1589,130.0346,113.6152,246.4997,0,U,61214,999,10054,-.16434041E-3,-.5917E-4,0
STARLINK-32436,2024-171R,2026-07-06T03:17:41.703936,15.34354512,.00015093,53.1583,130.8306,82.4029,277.7145,0,U,61215,999,10052,-.21251106E-3,-.7539E-4,0
STARLINK-32425,2024-171S,2026-07-06T06:12:02.729952,15.31677372,.00012696,53.1590,131.5842,110.3138,249.8000,0,U,61216,999,10052,-.12674056E-3,-.4293E-4,0
STARLINK-32342,2024-171T,2026-07-06T05:58:34.701600,15.31697854,.0001058,53.1591,131.5185,116.3009,243.8102,0,U,61217,999,10143,-.2626197E-4,-.118E-4,0
STARLINK-32423,2024-171U,2026-07-06T02:57:24.235488,15.31682851,.00010908,53.1603,132.1613,80.4440,279.6685,0,U,61218,999,10141,-.89447826E-4,-.3138E-4,0
STARLINK-32248,2024-171V,2026-07-06T02:43:56.359200,15.31683849,.00014088,53.1595,132.0968,70.7797,289.3356,0,U,61219,999,10141,-.1117787E-3,-.383E-4,0
STARLINK-11300 [DTC],2024-175A,2026-07-06T17:38:55.749408,15.69723865,.0001106,53.1593,189.4376,90.3802,269.7343,0,U,61243,999,10206,.13329E-4,.1027E-4,0
